CTC1_L_00461006-03
1 10062U 25379OP  26075.70035880  .00000000  00000+0  00000-0 0  9995
2 10062  88.0000  60.0000 0000000   0.0000  80.0000 15.05490646    12
CTC1_L_00461006-04
1 10063U 24280TG  26075.70035880  .00000000  00000+0  00000-0 0  9996
2 10063  88.0000  60.0000 0000000   0.0000 110.0000 15.05490646    17
CTC1_L_00461006-05
1 10064U 22195YW  26075.70035880  .00000000  00000+0  00000-0 0  9990
2 10064  88.0000  60.0000 0000000   0.0000 140.0000 15.05490646    11
CTC1_L_00461006-06
1 10065U 23793BW  26075.70035880  .00000000  00000+0  00000-0 0  9996
2 10065  88.0000  60.0000 0000000   0.0000 170.0000 15.05490646    15
CTC1_L_00461006-07
1 10066U 23147RB  26075.70035880  .00000000  00000+0  00000-0 0  9990
2 10066  88.0000  60.0000 0000000   0.0000 200.0000 15.05490646    10
CTC1_L_00461006-08
1 10067U 23327NR  26075.70035880  .00000000  00000+0  00000-0 0  9991
2 10067  88.0000  60.0000 0000000   0.0000 230.0000 15.05490646    14
CTC1_L_00461006-09
1 10068U 23159TZ  26075.70035880  .00000000  00000+0  00000-0 0  9995
2 10068  88.0000  60.0000 0000000   0.0000 260.0000 15.05490646    18
CTC1_L_00461006-10
1 10069U 25039FC  26075.70035880  .00000000  00000+0  00000-0 0  9995
2 10069  88.0000  60.0000 0000000   0.0000 290.0000 15.05490646    12
CTC1_L_00461006-11
1 10070U 26604OF  26075.70035880  .00000000  00000+0  00000-0 0  9996
2 10070  88.0000  60.0000 0000000   0.0000 320.0000 15.05490646    18
CTC1_L_00461006-12
1 10071U 24133ZO  26075.70035880  .00000000  00000+0  00000-0 0  9992
2 10071  88.0000  60.0000 0000000   0.0000 350.0000 15.05490646    12
CTC1_L_00461007-01
1 10072U 26853KX  26075.70035880  .00000000  00000+0  00000-0 0  9994
2 10072  88.0000  72.0000 0000000   0.0000  24.0000 15.05490646    14
CTC1_L_00461007-02
1 10073U 25782TH  26075.70035880  .00000000  00000+0  00000-0 0  9995
2 10073  88.0000  72.0000 0000000   0.0000  54.0000 15.05490646    18
CTC1_L_00461007-03
1 10074U 24029OG  26075.70035880  .00000000  00000+0  00000-0 0  9999
2 10074  88.0000  72.0000 0000000   0.0000  84.0000 15.05490646    12
CTC1_L_00461007-04
1 10075U 26427VR  26075.70035880  .00000000  00000+0  00000-0 0  9994
2 10075  88.0000  72.0000 0000000   0.0000 114.0000 15.05490646    17
CTC1_L_00461007-05
1 10076U 24934FC  26075.70035880  .00000000  00000+0  00000-0 0  9996
2 10076  88.0000  72.0000 0000000   0.0000 144.0000 15.05490646    11
CTC1_L_00461007-06
1 10077U 23544ZV  26075.70035880  .00000000  00000+0  00000-0 0  9993
2 10077  88.0000  72.0000 0000000   0.0000 174.0000 15.05490646    15
CTC1_L_00461007-07
1 10078U 22559IZ  26075.70035880  .00000000  00000+0  00000-0 0  9999
2 10078  88.0000  72.0000 0000000   0.0000 204.0000 15.05490646    10
CTC1_L_00461007-08
1 10079U 23196C   26075.70035880  .00000000  00000+0  00000-0 0  9998
2 10079  88.0000  72.0000 0000000   0.0000 234.0000 15.05490646    14
CTC1_L_00461007-09
1 10080U 25267UL  26075.70035880  .00000000  00000+0  00000-0 0  9991
2 10080  88.0000  72.0000 0000000   0.0000 264.0000 15.05490646    19
CTC1_L_00461007-10
1 10081U 23114NM  26075.70035880  .00000000  00000+0  00000-0 0  9991
2 10081  88.0000  72.0000 0000000   0.0000 294.0000 15.05490646    13
CTC1_L_00461007-11
1 10082U 23873SF  26075.70035880  .00000000  00000+0  00000-0 0  9994
2 10082  88.0000  72.0000 0000000   0.0000 324.0000 15.05490646    18
CTC1_L_00461007-12
1 10083U 26383FO  26075.70035880  .00000000  00000+0  00000-0 0  9994
2 10083  88.0000  72.0000 0000000   0.0000 354.0000 15.05490646    12
CTC1_L_00461008-01
1 10084U 22047VX  26075.70035880  .00000000  00000+0  00000-0 0  9998
2 10084  88.0000  84.0000 0000000   0.0000  28.0000 15.05490646    14
CTC1_L_00461008-02
1 10085U 24306ZO  26075.70035880  .00000000  00000+0  00000-0 0  9999
2 10085  88.0000  84.0000 0000000   0.0000  58.0000 15.05490646    18
CTC1_L_00461008-03
1 10086U 22454HT  26075.70035880  .00000000  00000+0  00000-0 0  9992
2 10086  88.0000  84.0000 0000000   0.0000  88.0000 15.05490646    12
CTC1_L_00461008-04
1 10087U 25892OJ  26075.70035880  .00000000  00000+0  00000-0 0  9992
2 10087  88.0000  84.0000 0000000   0.0000 118.0000 15.05490646    17
CTC1_L_00461008-05
1 10088U 26030OV  26075.70035880  .00000000  00000+0  00000-0 0  9998
2 10088  88.0000  84.0000 0000000   0.0000 148.0000 15.05490646    11
CTC1_L_00461008-06
1 10089U 22240HK  26075.70035880  .00000000  00000+0  00000-0 0  9998
2 10089  88.0000  84.0000 0000000   0.0000 178.0000 15.05490646    15
CTC1_L_00461008-07
1 10090U 23714FR  26075.70035880  .00000000  00000+0  00000-0 0  9997
2 10090  88.0000  84.0000 0000000   0.0000 208.0000 15.05490646    11
CTC1_L_00461008-08
1 10091U 24239WP  26075.70035880  .00000000  00000+0  00000-0 0  9991
2 10091  88.0000  84.0000 0000000   0.0000 238.0000 15.05490646    15
CTC1_L_00461008-09
1 10092U 25415LM  26075.70035880  .00000000  00000+0  00000-0 0  9999
2 10092  88.0000  84.0000 0000000   0.0000 268.0000 15.05490646    19
CTC1_L_00461008-10
1 10093U 25697O   26075.70035880  .00000000  00000+0  00000-0 0  9992
2 10093  88.0000  84.0000 0000000   0.0000 298.0000 15.05490646    13
CTC1_L_00461008-11
1 10094U 23454SS  26075.70035880  .00000000  00000+0  00000-0 0  9992
2 10094  88.0000  84.0000 0000000   0.0000 328.0000 15.05490646    18
CTC1_L_00461008-12
1 10095U 23260UG  26075.70035880  .00000000  00000+0  00000-0 0  9998
2 10095  88.0000  84.0000 0000000   0.0000 358.0000 15.05490646    12
CTC1_L_00461009-01
1 10096U 25289CD  26075.70035880  .00000000  00000+0  00000-0 0  9992
2 10096  88.0000  96.0000 0000000   0.0000  32.0000 15.05490646    15
CTC1_L_00461009-02
1 10097U 24015CV  26075.70035880  .00000000  00000+0  00000-0 0  9999
2 10097  88.0000  96.0000 0000000   0.0000  62.0000 15.05490646    19
CTC1_L_00461009-03
1 10098U 22420ZV  26075.70035880  .00000000  00000+0  00000-0 0  9998
2 10098  88.0000  96.0000 0000000   0.0000  92.0000 15.05490646    13
CTC1_L_00461009-04
1 10099U 22399GL  26075.70035880  .00000000  00000+0  00000-0 0  9994
2 10099  88.0000  96.0000 0000000   0.0000 122.0000 15.05490646    18
CTC1_L_00461009-05
1 10100U 23829IY  26075.70035880  .00000000  00000+0  00000-0 0  9996
2 10100  88.0000  96.0000 0000000   0.0000 152.0000 15.05490646    14
CTC1_L_00461009-06
1 10101U 24844RN  26075.70035880  .00000000  00000+0  00000-0 0  9995
2 10101  88.0000  96.0000 0000000   0.0000 182.0000 15.05490646    18
CTC1_L_00461009-07
1 10102U 22152RV  26075.70035880  .00000000  00000+0  00000-0 0  9996
2 10102  88.0000  96.0000 0000000   0.0000 212.0000 15.05490646    13
CTC1_L_00461009-08
1 10103U 26613EH  26075.70035880  .00000000  00000+0  00000-0 0  9993
2 10103  88.0000  96.0000 0000000   0.0000 242.0000 15.05490646    17
CTC1_L_00461009-09
1 10104U 26006OT  26075.70035880  .00000000  00000+0  00000-0 0  9990
2 10104  88.0000  96.0000 0000000   0.0000 272.0000 15.05490646    11
CTC1_L_00461009-10
1 10105U 24141EK  26075.70035880  .00000000  00000+0  00000-0 0  9999
2 10105  88.0000  96.0000 0000000   0.0000 302.0000 15.05490646    16
CTC1_L_00461009-11
1 10106U 25086NZ  26075.70035880  .00000000  00000+0  00000-0 0  9999
2 10106  88.0000  96.0000 0000000   0.0000 332.0000 15.05490646    10
CTC1_L_00461009-12
1 10107U 24873MH  26075.70035880  .00000000  00000+0  00000-0 0  9993
2 10107  88.0000  96.0000 0000000   0.0000   2.0000 15.05490646    15
CTC1_L_00461010-01
1 10108U 25193UN  26075.70035880  .00000000  00000+0  00000-0 0  9990
2 10108  88.0000 108.0000 0000000   0.0000  36.0000 15.05490646    17
CTC1_L_00461010-02
1 10109U 22033QJ  26075.70035880  .00000000  00000+0  00000-0 0  9991
2 10109  88.0000 108.0000 0000000   0.0000  66.0000 15.05490646    11
CTC1_L_00461010-03
1 10110U 25774MX  26075.70035880  .00000000  00000+0  00000-0 0  9998
2 10110  88.0000 108.0000 0000000   0.0000  96.0000 15.05490646    16
CTC1_L_00461010-04
1 10111U 23666VD  26075.70035880  .00000000  00000+0  00000-0 0  9997
2 10111  88.0000 108.0000 0000000   0.0000 126.0000 15.05490646    11
CTC1_L_00461010-05
1 10112U 22600TD  26075.70035880  .00000000  00000+0  00000-0 0  9995
2 10112  88.0000 108.0000 0000000   0.0000 156.0000 15.05490646    15
CTC1_L_00461010-06
1 10113U 24644VY  26075.70035880  .00000000  00000+0  00000-0 0  9996
2 10113  88.0000 108.0000 0000000   0.0000 186.0000 15.05490646    19
CTC1_L_00461010-07
1 10114U 23676GM  26075.70035880  .00000000  00000+0  00000-0 0  9991
2 10114  88.0000 108.0000 0000000   0.0000 216.0000 15.05490646    14
CTC1_L_00461010-08
1 10115U 25561VU  26075.70035880  .00000000  00000+0  00000-0 0  9997
2 10115  88.0000 108.0000 0000000   0.0000 246.0000 15.05490646    18
CTC1_L_00461010-09
1 10116U 23284BC  26075.70035880  .00000000  00000+0  00000-0 0  9998
2 10116  88.0000 108.0000 0000000   0.0000 276.0000 15.05490646    12
CTC1_L_00461010-10
1 10117U 22566JE  26075.70035880  .00000000  00000+0  00000-0 0  9991
2 10117  88.0000 108.0000 0000000   0.0000 306.0000 15.05490646    17
CTC1_L_00461010-11
1 10118U 25399QZ  26075.70035880  .00000000  00000+0  00000-0 0  9999
2 10118  88.0000 108.0000 0000000   0.0000 336.0000 15.05490646    11
CTC1_L_00461010-12
1 10119U 23426PJ  26075.70035880  .00000000  00000+0  00000-0 0  9999
2 10119  88.0000 108.0000 0000000   0.0000   6.0000 15.05490646    16
CTC1_L_00461011-01
1 10120U 23346ZA  26075.70035880  .00000000  00000+0  00000-0 0  9992
2 10120  88.0000 120.0000 0000000   0.0000  40.0000 15.05490646    10
CTC1_L_00461011-02
1 10121U 23834GK  26075.70035880  .00000000  00000+0  00000-0 0  9995
2 10121  88.0000 120.0000 0000000   0.0000  70.0000 15.05490646    14
CTC1_L_00461011-03
1 10122U 25453CG  26075.70035880  .00000000  00000+0  00000-0 0  9995
2 10122  88.0000 120.0000 0000000   0.0000 100.0000 15.05490646    19
CTC1_L_00461011-04
1 10123U 26303JG  26075.70035880  .00000000  00000+0  00000-0 0  9991
2 10123  88.0000 120.0000 0000000   0.0000 130.0000 15.05490646    13
